[{"OBJECT_NAME":"HERMES-3","OBJECT_ID":"2025-052BR","EPOCH":"2026-03-09T22:30:01.073952","MEAN_MOTION":15.30039786,"ECCENTRICITY":0.00079928,"INCLINATION":97.3987,"RA_OF_ASC_NODE":324.6131,"ARG_OF_PERICENTER":112.9583,"MEAN_ANOMALY":247.2502,"EPHEMERIS_TYPE":0,"CLASSIFICATION_TYPE":"U","NORAD_CAT_ID":63835,"ELEMENT_SET_NO":999,"REV_AT_EPOCH":5486,"BSTAR":0.0006995793,"MEAN_MOTION_DOT":0.00020316,"MEAN_MOTION_DDOT":0},{"OBJECT_NAME":"STARLINK-34782","OBJECT_ID":"2025-190H","EPOCH":"2026-03-09T14:00:18.525600","MEAN_MOTION":15.30185807,"ECCENTRICITY":0.0001372,"INCLINATION":53.1587,"RA_OF_ASC_NODE":168.3432,"ARG_OF_PERICENTER":90.4661,"MEAN_ANOMALY":269.6497,"EPHEMERIS_TYPE":0,"CLASSIFICATION_TYPE":"U","NORAD_CAT_ID":65358,"ELEMENT_SET_NO":999,"REV_AT_EPOCH":2974,"BSTAR":0.0011545,"MEAN_MOTION_DOT":0.00033975,"MEAN_MOTION_DDOT":0}]
